{"type": "FeatureCollection", "features": [ {"type": "Feature", "properties": {"norad_id": 34635, "name": "COSMOS 2251 DEB", "group": "cosmos-2251-debris", "lat": -54.99134044647201, "lon": -98.63874397435124, "alt_km": 681.221658824662, "timestamp": "2025-12-19T16:54:44.658086+00:00", "meta": {"OBJECT_NAME": "COSMOS 2251 DEB", "OBJECT_ID": "1993-036XG", "EPOCH": "2025-12-19T06:18:43.397856", "MEAN_MOTION": 14.68344582, "ECCENTRICITY": 0.00280134, "INCLINATION": 74.0459, "RA_OF_ASC_NODE": 58.109, "ARG_OF_PERICENTER": 124.6629, "MEAN_ANOMALY": 299.6199, "EPHEMERIS_TYPE": 0, "CLASSIFICATION_TYPE": "U", "NORAD_CAT_ID": 34635, "ELEMENT_SET_NO": 999, "REV_AT_EPOCH": 73315, "BSTAR": 0.00070962955, "MEAN_MOTION_DOT": 4.094e-05, "MEAN_MOTION_DDOT": 0}, "tle": {"line1": "1 34635U 93036XG  25353.26300229  .00004094  00000+0  70963-3 0  9998", "line2": "2 34635  74.0459  58.1090 0028013 124.6629 299.6199 14.68344582733158"}}, "geometry": {"type": "Point", "coordinates": [-98.63874397435124, -54.99134044647201]}}, {"type": "Feature", "properties": {"norad_id": 34637, "name": "COSMOS 2251 DEB", "group": "cosmos-2251-debris", "lat": -41.60798391424366, "lon": -77.41271050032532, "alt_km": 685.1752809315358, "timestamp": "2025-12-19T16:54:44.658096+00:00", "meta": {"OBJECT_NAME": "COSMOS 2251 DEB", "OBJECT_ID": "1993-036XJ", "EPOCH": "2025-12-19T06:10:11.395776", "MEAN_MOTION": 14.60150921, "ECCENTRICITY": 0.00492529, "INCLINATION": 74.0498, "RA_OF_ASC_NODE": 88.7269, "ARG_OF_PERICENTER": 157.5379, "MEAN_ANOMALY": 233.6347, "EPHEMERIS_TYPE": 0, "CLASSIFICATION_TYPE": "U", "NORAD_CAT_ID": 34637, "ELEMENT_SET_NO": 999, "REV_AT_EPOCH": 88622, "BSTAR": 0.00058690488, "MEAN_MOTION_DOT": 2.845e-05, "MEAN_MOTION_DDOT": 0}, "tle": {"line1": "1 34637U 93036XJ  25353.25707634  .00002845  00000+0  58690-3 0  9995", "line2": "2 34637  74.0498  88.7269 0049252 157.5379 233.6347 14.60150921886229"}}, "geometry": {"type": "Point", "coordinates": [-77.41271050032532, -41.60798391424366]}}, {"type": "Feature", "properties": {"norad_id": 34641, "name": "COSMOS 2251 DEB", "group": "cosmos-2251-debris", "lat": 10.805706543076715, "lon": 71.54147705136735, "alt_km": 708.5216828215061, "timestamp": "2025-12-19T16:54:44.658107+00:00", "meta": {"OBJECT_NAME": "COSMOS 2251 DEB", "OBJECT_ID": "1993-036XN", "EPOCH": "2025-12-18T06:23:44.080224", "MEAN_MOTION": 14.52044087, "ECCENTRICITY": 0.0018715, "INCLINATION": 73.8399, "RA_OF_ASC_NODE": 71.1098, "ARG_OF_PERICENTER": 344.6386, "MEAN_ANOMALY": 71.632, "EPHEMERIS_TYPE": 0, "CLASSIFICATION_TYPE": "U", "NORAD_CAT_ID": 34641, "ELEMENT_SET_NO": 999, "REV_AT_EPOCH": 88336, "BSTAR": 0.00072302378, "MEAN_MOTION_DOT": 2.902e-05, "MEAN_MOTION_DDOT": 0}, "tle": {"line1": "1 34641U 93036XN  25352.26648241  .00002902  00000+0  72302-3 0  9998", "line2": "2 34641  73.8399  71.1098 0018715 344.6386  71.6320 14.52044087883363"}}, "geometry": {"type": "Point", "coordinates": [71.54147705136735, 10.805706543076715]}}, {"type": "Feature", "properties": {"norad_id": 34642, "name": "COSMOS 2251 DEB", "group": "cosmos-2251-debris", "lat": -27.36801181938675, "lon": 156.2765723867191, "alt_km": 830.7341431561927, "timestamp": "2025-12-19T16:54:44.658118+00:00", "meta": {"OBJECT_NAME": "COSMOS 2251 DEB", "OBJECT_ID": "1993-036XP", "EPOCH": "2025-12-18T09:45:59.315328", "MEAN_MOTION": 13.98988721, "ECCENTRICITY": 0.02067628, "INCLINATION": 74.0043, "RA_OF_ASC_NODE": 329.9846, "ARG_OF_PERICENTER": 148.5109, "MEAN_ANOMALY": 4.4763, "EPHEMERIS_TYPE": 0, "CLASSIFICATION_TYPE": "U", "NORAD_CAT_ID": 34642, "ELEMENT_SET_NO": 999, "REV_AT_EPOCH": 85372, "BSTAR": 0.00065937627, "MEAN_MOTION_DOT": 1.121e-05, "MEAN_MOTION_DDOT": 0}, "tle": {"line1": "1 34642U 93036XP  25352.40693652  .00001121  00000+0  65938-3 0  9990", "line2": "2 34642  74.0043 329.9846 0206762 148.5109   4.4763 13.98988721853726"}}, "geometry": {"type": "Point", "coordinates": [156.2765723867191, -27.36801181938675]}}, {"type": "Feature", "properties": {"norad_id": 34671, "name": "COSMOS 2251 DEB", "group": "cosmos-2251-debris", "lat": 47.448337694073395, "lon": -77.33173337282004, "alt_km": 663.4811286960994, "timestamp": "2025-12-19T16:54:44.658129+00:00", "meta": {"OBJECT_NAME": "COSMOS 2251 DEB", "OBJECT_ID": "1993-036XR", "EPOCH": "2025-12-18T19:44:09.862368", "MEAN_MOTION": 14.67035809, "ECCENTRICITY": 0.00110081, "INCLINATION": 74.0266, "RA_OF_ASC_NODE": 122.5523, "ARG_OF_PERICENTER": 203.3177, "MEAN_ANOMALY": 308.6526, "EPHEMERIS_TYPE": 0, "CLASSIFICATION_TYPE": "U", "NORAD_CAT_ID": 34671, "ELEMENT_SET_NO": 999, "REV_AT_EPOCH": 88386, "BSTAR": 0.0012203972, "MEAN_MOTION_DOT": 6.827e-05, "MEAN_MOTION_DDOT": 0}, "tle": {"line1": "1 34671U 93036XR  25352.82233637  .00006827  00000+0  12204-2 0  9996", "line2": "2 34671  74.0266 122.5523 0011008 203.3177 308.6526 14.67035809883867"}}, "geometry": {"type": "Point", "coordinates": [-77.33173337282004, 47.448337694073395]}}, {"type": "Feature", "properties": {"norad_id": 34672, "name": "COSMOS 2251 DEB", "group": "cosmos-2251-debris", "lat": -72.59586929235124, "lon": 178.76241533082595, "alt_km": 780.3748504678215, "timestamp": "2025-12-19T16:54:44.658140+00:00", "meta": {"OBJECT_NAME": "COSMOS 2251 DEB", "OBJECT_ID": "1993-036XS", "EPOCH": "2025-12-18T13:28:46.255872", "MEAN_MOTION": 14.36417673, "ECCENTRICITY": 0.00241418, "INCLINATION": 74.0338, "RA_OF_ASC_NODE": 294.8922, "ARG_OF_PERICENTER": 5.7391, "MEAN_ANOMALY": 109.133, "EPHEMERIS_TYPE": 0, "CLASSIFICATION_TYPE": "U", "NORAD_CAT_ID": 34672, "ELEMENT_SET_NO": 999, "REV_AT_EPOCH": 65261, "BSTAR": 0.00020838077, "MEAN_MOTION_DOT": 5.86e-06, "MEAN_MOTION_DDOT": 0}, "tle": {"line1": "1 34672U 93036XS  25352.56164648  .00000586  00000+0  20838-3 0  9992", "line2": "2 34672  74.0338 294.8922 0024141   5.7391 109.1330 14.36417673652611"}}, "geometry": {"type": "Point", "coordinates": [178.76241533082595, -72.59586929235124]}}, {"type": "Feature", "properties": {"norad_id": 34678, "name": "COSMOS 2251 DEB", "group": "cosmos-2251-debris", "lat": -66.93950835977896, "lon": -49.21524341071224, "alt_km": 805.2917965508314, "timestamp": "2025-12-19T16:54:44.658150+00:00", "meta": {"OBJECT_NAME": "COSMOS 2251 DEB", "OBJECT_ID": "1993-036XY", "EPOCH": "2025-12-18T11:45:31.328352", "MEAN_MOTION": 14.30066037, "ECCENTRICITY": 0.00245747, "INCLINATION": 74.0376, "RA_OF_ASC_NODE": 355.2383, "ARG_OF_PERICENTER": 42.5322, "MEAN_ANOMALY": 113.3622, "EPHEMERIS_TYPE": 0, "CLASSIFICATION_TYPE": "U", "NORAD_CAT_ID": 34678, "ELEMENT_SET_NO": 999, "REV_AT_EPOCH": 87461, "BSTAR": 2.9350181e-05, "MEAN_MOTION_DOT": 5e-07, "MEAN_MOTION_DDOT": 0}, "tle": {"line1": "1 34678U 93036XY  25352.48994593  .00000050  00000+0  29350-4 0  9994", "line2": "2 34678  74.0376 355.2383 0024574  42.5322 113.3622 14.30066037874610"}}, "geometry": {"type": "Point", "coordinates": [-49.21524341071224, -66.93950835977896]}}, {"type": "Feature", "properties": {"norad_id": 34680, "name": "COSMOS 2251 DEB", "group": "cosmos-2251-debris", "lat": -68.6724137515985, "lon": -16.316198265145413, "alt_km": 694.2757600784862, "timestamp": "2025-12-19T16:54:44.658161+00:00", "meta": {"OBJECT_NAME": "COSMOS 2251 DEB", "OBJECT_ID": "1993-036YA", "EPOCH": "2025-12-18T08:39:27.142848", "MEAN_MOTION": 14.60682322, "ECCENTRICITY": 0.00065553, "INCLINATION": 74.0428, "RA_OF_ASC_NODE": 119.1245, "ARG_OF_PERICENTER": 218.9141, "MEAN_ANOMALY": 172.4418, "EPHEMERIS_TYPE": 0, "CLASSIFICATION_TYPE": "U", "NORAD_CAT_ID": 34680, "ELEMENT_SET_NO": 999, "REV_AT_EPOCH": 88410, "BSTAR": 0.00092042138, "MEAN_MOTION_DOT": 4.458e-05, "MEAN_MOTION_DDOT": 0}, "tle": {"line1": "1 34680U 93036YA  25352.36073082  .00004458  00000+0  92042-3 0  9998", "line2": "2 34680  74.0428 119.1245 0006555 218.9141 172.4418 14.60682322884100"}}, "geometry": {"type": "Point", "coordinates": [-16.316198265145413, -68.6724137515985]}}, {"type": "Feature", "properties": {"norad_id": 34681, "name": "COSMOS 2251 DEB", "group": "cosmos-2251-debris", "lat": -27.74653531362955, "lon": -92.01753735557989, "alt_km": 606.2531837692895, "timestamp": "2025-12-19T16:54:44.658171+00:00", "meta": {"OBJECT_NAME": "COSMOS 2251 DEB", "OBJECT_ID": "1993-036YB", "EPOCH": "2025-12-19T06:15:58.040352", "MEAN_MOTION": 14.83361506, "ECCENTRICITY": 0.00256268, "INCLINATION": 74.0634, "RA_OF_ASC_NODE": 277.5041, "ARG_OF_PERICENTER": 333.282, "MEAN_ANOMALY": 150.0203, "EPHEMERIS_TYPE": 0, "CLASSIFICATION_TYPE": "U", "NORAD_CAT_ID": 34681, "ELEMENT_SET_NO": 999, "REV_AT_EPOCH": 89367, "BSTAR": 0.001034446, "MEAN_MOTION_DOT": 8.505e-05, "MEAN_MOTION_DDOT": 0}, "tle": {"line1": "1 34681U 93036YB  25353.26108843  .00008505  00000+0  10344-2 0  9994", "line2": "2 34681  74.0634 277.5041 0025626 333.2820 150.0203 14.83361506893677"}}, "geometry": {"type": "Point", "coordinates": [-92.01753735557989, -27.74653531362955]}}, {"type": "Feature", "properties": {"norad_id": 34682, "name": "COSMOS 2251 DEB", "group": "cosmos-2251-debris", "lat": -13.988085724633848, "lon": -106.18807700954437, "alt_km": 688.216698275106, "timestamp": "2025-12-19T16:54:44.658181+00:00", "meta": {"OBJECT_NAME": "COSMOS 2251 DEB", "OBJECT_ID": "1993-036YC", "EPOCH": "2025-12-19T06:24:40.896864", "MEAN_MOTION": 14.58938586, "ECCENTRICITY": 0.00180327, "INCLINATION": 74.0399, "RA_OF_ASC_NODE": 70.5568, "ARG_OF_PERICENTER": 203.0416, "MEAN_ANOMALY": 214.3176, "EPHEMERIS_TYPE": 0, "CLASSIFICATION_TYPE": "U", "NORAD_CAT_ID": 34682, "ELEMENT_SET_NO": 999, "REV_AT_EPOCH": 88781, "BSTAR": 0.00050753808, "MEAN_MOTION_DOT": 2.356e-05, "MEAN_MOTION_DDOT": 0}, "tle": {"line1": "1 34682U 93036YC  25353.26714001  .00002356  00000+0  50754-3 0  9992", "line2": "2 34682  74.0399  70.5568 0018032 203.0416 214.3176 14.58938586887811"}}, "geometry": {"type": "Point", "coordinates": [-106.18807700954437, -13.988085724633848]}}]}